DELTA 2 R/B(1)          
1 20453U 90008B   26036.05230671  .00073695  00000+0  98466-3 0  9997
2 20453  35.6065  28.3010 0096421 314.6579  44.6327 15.51449874921053
COSMOS 2058             
1 20465U 90010A   26036.06991173  .00005031  00000+0  29901-3 0  9992
2 20465  82.4631  79.5628 0012115  87.9203 272.3414 15.11018598937314
SL-14 R/B               
1 20466U 90010B   26036.10991133  .00000614  00000+0  71386-4 0  9991
2 20466  82.5034 297.9916 0021048  50.1079 310.1982 14.83539511923651
SL-14 R/B               
1 20511U 90018B   26036.02876127  .00000491  00000+0  58665-4 0  9994
2 20511  82.5185 253.6246 0015906 194.7536 165.3216 14.82110884917743
HST                     
1 20580U 90037B   26035.98568395  .00009234  00000+0  31099-3 0  9995
2 20580  28.4665 263.0127 0001949 106.2172 253.8638 15.28955853768301
SL-16 R/B               
1 20625U 90046B   26036.03756677 -.00000002  00000+0  23683-4 0  9990
2 20625  70.9997   6.4858 0014526 344.9422  15.1266 14.15005006843777
COSMOS 2084             
1 20663U 90055A   26036.11006611  .00003490  00000+0  25456-3 0  9999
2 20663  62.7897  86.6785 0022258 183.2329 176.8631 15.05438714931413
SL-6 R/B(2)             
1 20666U 90055D   26035.98217251  .00003846  00000+0  29457-3 0  9990
2 20666  62.7850   5.0612 0019903 337.4835  22.5388 15.03414822933271
SL-8 R/B                
1 20775U 90078B   26036.10689105  .00018839  00000+0  55697-3 0  9995
2 20775  82.9026 280.5873 0367337 123.1606 240.5423 14.87975298804452
SL-8 R/B                
1 21088U 91006B   26036.17832169  .00000008  00000+0 -74932-5 0  9997
2 21088  82.9428 194.2178 0023480 124.8243  48.2786 13.77491890759596
OKEAN-3                 
1 21397U 91039A   26036.15986432  .00004492  00000+0  31772-3 0  9990
2 21397  82.5182   8.3477 0016374  83.0632 277.2456 15.04543532860146
COSMOS 2151             
1 21422U 91042A   26036.19718023  .00002375  00000+0  18874-3 0  9992
2 21422  82.4968 115.0183 0013042 162.9290 197.2376 14.99977079858321
