CCSDS_OMM_VERS = 2.0
CREATION_DATE  = 
ORIGINATOR     = 

OBJECT_NAME    = DELTA 2 R/B(1)
OBJECT_ID      = 1990-008B
CENTER_NAME    = EARTH
REF_FRAME      = TEME
TIME_SYSTEM    = UTC
MEAN_ELEMENT_THEORY = SGP/SGP4

EPOCH          = 2026-02-05T01:15:19.299744
MEAN_MOTION    = 15.51449874
ECCENTRICITY   = .0096421
INCLINATION    = 35.6065
RA_OF_ASC_NODE = 28.3010
ARG_OF_PERICENTER = 314.6579
MEAN_ANOMALY   = 44.6327

EPHEMERIS_TYPE = 0
CLASSIFICATION_TYPE = U
NORAD_CAT_ID   = 20453
ELEMENT_SET_NO = 999
REV_AT_EPOCH   = 92105
BSTAR          = .98466E-3
MEAN_MOTION_DOT = .73695E-3
MEAN_MOTION_DDOT = 0

CCSDS_OMM_VERS = 2.0
CREATION_DATE  = 
ORIGINATOR     = 

OBJECT_NAME    = COSMOS 2058
OBJECT_ID      = 1990-010A
CENTER_NAME    = EARTH
REF_FRAME      = TEME
TIME_SYSTEM    = UTC
MEAN_ELEMENT_THEORY = SGP/SGP4

EPOCH          = 2026-02-05T01:40:40.373472
MEAN_MOTION    = 15.11018598
ECCENTRICITY   = .0012115
INCLINATION    = 82.4631
RA_OF_ASC_NODE = 79.5628
ARG_OF_PERICENTER = 87.9203
MEAN_ANOMALY   = 272.3414

EPHEMERIS_TYPE = 0
CLASSIFICATION_TYPE = U
NORAD_CAT_ID   = 20465
ELEMENT_SET_NO = 999
REV_AT_EPOCH   = 93731
BSTAR          = .29901E-3
MEAN_MOTION_DOT = .5031E-4
MEAN_MOTION_DDOT = 0

CCSDS_OMM_VERS = 2.0
CREATION_DATE  = 
ORIGINATOR     = 

OBJECT_NAME    = SL-14 R/B
OBJECT_ID      = 1990-010B
CENTER_NAME    = EARTH
REF_FRAME      = TEME
TIME_SYSTEM    = UTC
MEAN_ELEMENT_THEORY = SGP/SGP4

EPOCH          = 2026-02-05T02:38:16.338912
MEAN_MOTION    = 14.83539511
ECCENTRICITY   = .0021048
INCLINATION    = 82.5034
RA_OF_ASC_NODE = 297.9916
ARG_OF_PERICENTER = 50.1079
MEAN_ANOMALY   = 310.1982

EPHEMERIS_TYPE = 0
CLASSIFICATION_TYPE = U
NORAD_CAT_ID   = 20466
ELEMENT_SET_NO = 999
REV_AT_EPOCH   = 92365
BSTAR          = .71386E-4
MEAN_MOTION_DOT = .614E-5
MEAN_MOTION_DDOT = 0

CCSDS_OMM_VERS = 2.0
CREATION_DATE  = 
ORIGINATOR     = 

OBJECT_NAME    = SL-14 R/B
OBJECT_ID      = 1990-018B
CENTER_NAME    = EARTH
REF_FRAME      = TEME
TIME_SYSTEM    = UTC
MEAN_ELEMENT_THEORY = SGP/SGP4

EPOCH          = 2026-02-05T00:41:24.973728
MEAN_MOTION    = 14.82110884
ECCENTRICITY   = .0015906
INCLINATION    = 82.5185
RA_OF_ASC_NODE = 253.6246
ARG_OF_PERICENTER = 194.7536
MEAN_ANOMALY   = 165.3216

EPHEMERIS_TYPE = 0
CLASSIFICATION_TYPE = U
NORAD_CAT_ID   = 20511
ELEMENT_SET_NO = 999
REV_AT_EPOCH   = 91774
BSTAR          = .58665E-4
MEAN_MOTION_DOT = .491E-5
MEAN_MOTION_DDOT = 0

CCSDS_OMM_VERS = 2.0
CREATION_DATE  = 
ORIGINATOR     = 

OBJECT_NAME    = HST
OBJECT_ID      = 1990-037B
CENTER_NAME    = EARTH
REF_FRAME      = TEME
TIME_SYSTEM    = UTC
MEAN_ELEMENT_THEORY = SGP/SGP4

EPOCH          = 2026-02-04T23:39:23.093280
MEAN_MOTION    = 15.28955853
ECCENTRICITY   = .0001949
INCLINATION    = 28.4665
RA_OF_ASC_NODE = 263.0127
ARG_OF_PERICENTER = 106.2172
MEAN_ANOMALY   = 253.8638

EPHEMERIS_TYPE = 0
CLASSIFICATION_TYPE = U
NORAD_CAT_ID   = 20580
ELEMENT_SET_NO = 999
REV_AT_EPOCH   = 76830
BSTAR          = .31099E-3
MEAN_MOTION_DOT = .9234E-4
MEAN_MOTION_DDOT = 0

CCSDS_OMM_VERS = 2.0
CREATION_DATE  = 
ORIGINATOR     = 

OBJECT_NAME    = SL-16 R/B
OBJECT_ID      = 1990-046B
CENTER_NAME    = EARTH
REF_FRAME      = TEME
TIME_SYSTEM    = UTC
MEAN_ELEMENT_THEORY = SGP/SGP4

EPOCH          = 2026-02-05T00:54:05.768928
MEAN_MOTION    = 14.15005006
ECCENTRICITY   = .0014526
INCLINATION    = 70.9997
RA_OF_ASC_NODE = 6.4858
ARG_OF_PERICENTER = 344.9422
MEAN_ANOMALY   = 15.1266

EPHEMERIS_TYPE = 0
CLASSIFICATION_TYPE = U
NORAD_CAT_ID   = 20625
ELEMENT_SET_NO = 999
REV_AT_EPOCH   = 84377
BSTAR          = .23683E-4
MEAN_MOTION_DOT = -.2E-7
MEAN_MOTION_DDOT = 0

CCSDS_OMM_VERS = 2.0
CREATION_DATE  = 
ORIGINATOR     = 

OBJECT_NAME    = COSMOS 2084
OBJECT_ID      = 1990-055A
CENTER_NAME    = EARTH
REF_FRAME      = TEME
TIME_SYSTEM    = UTC
MEAN_ELEMENT_THEORY = SGP/SGP4

EPOCH          = 2026-02-05T02:38:29.711904
MEAN_MOTION    = 15.05438714
ECCENTRICITY   = .0022258
INCLINATION    = 62.7897
RA_OF_ASC_NODE = 86.6785
ARG_OF_PERICENTER = 183.2329
MEAN_ANOMALY   = 176.8631

EPHEMERIS_TYPE = 0
CLASSIFICATION_TYPE = U
NORAD_CAT_ID   = 20663
ELEMENT_SET_NO = 999
REV_AT_EPOCH   = 93141
BSTAR          = .25456E-3
MEAN_MOTION_DOT = .349E-4
MEAN_MOTION_DDOT = 0

CCSDS_OMM_VERS = 2.0
CREATION_DATE  = 
ORIGINATOR     = 

OBJECT_NAME    = SL-6 R/B(2)
OBJECT_ID      = 1990-055D
CENTER_NAME    = EARTH
REF_FRAME      = TEME
TIME_SYSTEM    = UTC
MEAN_ELEMENT_THEORY = SGP/SGP4

EPOCH          = 2026-02-04T23:34:19.704864
MEAN_MOTION    = 15.03414822
ECCENTRICITY   = .0019903
INCLINATION    = 62.7850
RA_OF_ASC_NODE = 5.0612
ARG_OF_PERICENTER = 337.4835
MEAN_ANOMALY   = 22.5388

EPHEMERIS_TYPE = 0
CLASSIFICATION_TYPE = U
NORAD_CAT_ID   = 20666
ELEMENT_SET_NO = 999
REV_AT_EPOCH   = 93327
BSTAR          = .29457E-3
MEAN_MOTION_DOT = .3846E-4
MEAN_MOTION_DDOT = 0

CCSDS_OMM_VERS = 2.0
CREATION_DATE  = 
ORIGINATOR     = 

OBJECT_NAME    = SL-8 R/B
OBJECT_ID      = 1990-078B
CENTER_NAME    = EARTH
REF_FRAME      = TEME
TIME_SYSTEM    = UTC
MEAN_ELEMENT_THEORY = SGP/SGP4

EPOCH          = 2026-02-05T02:33:55.386720
MEAN_MOTION    = 14.87975298
ECCENTRICITY   = .0367337
INCLINATION    = 82.9026
RA_OF_ASC_NODE = 280.5873
ARG_OF_PERICENTER = 123.1606
MEAN_ANOMALY   = 240.5423

EPHEMERIS_TYPE = 0
CLASSIFICATION_TYPE = U
NORAD_CAT_ID   = 20775
ELEMENT_SET_NO = 999
REV_AT_EPOCH   = 80445
BSTAR          = .55697E-3
MEAN_MOTION_DOT = .18839E-3
MEAN_MOTION_DDOT = 0

CCSDS_OMM_VERS = 2.0
CREATION_DATE  = 
ORIGINATOR     = 

OBJECT_NAME    = SL-8 R/B
OBJECT_ID      = 1991-006B
CENTER_NAME    = EARTH
REF_FRAME      = TEME
TIME_SYSTEM    = UTC
MEAN_ELEMENT_THEORY = SGP/SGP4

EPOCH          = 2026-02-05T04:16:46.994016
MEAN_MOTION    = 13.77491890
ECCENTRICITY   = .002348
INCLINATION    = 82.9428
RA_OF_ASC_NODE = 194.2178
ARG_OF_PERICENTER = 124.8243
MEAN_ANOMALY   = 48.2786

EPHEMERIS_TYPE = 0
CLASSIFICATION_TYPE = U
NORAD_CAT_ID   = 21088
ELEMENT_SET_NO = 999
REV_AT_EPOCH   = 75959
BSTAR          = -.74932E-5
MEAN_MOTION_DOT = .8E-7
MEAN_MOTION_DDOT = 0

CCSDS_OMM_VERS = 2.0
CREATION_DATE  = 
ORIGINATOR     = 

OBJECT_NAME    = OKEAN-3
OBJECT_ID      = 1991-039A
CENTER_NAME    = EARTH
REF_FRAME      = TEME
TIME_SYSTEM    = UTC
MEAN_ELEMENT_THEORY = SGP/SGP4

EPOCH          = 2026-02-05T03:50:12.277248
MEAN_MOTION    = 15.04543532
ECCENTRICITY   = .0016374
INCLINATION    = 82.5182
RA_OF_ASC_NODE = 8.3477
ARG_OF_PERICENTER = 83.0632
MEAN_ANOMALY   = 277.2456

EPHEMERIS_TYPE = 0
CLASSIFICATION_TYPE = U
NORAD_CAT_ID   = 21397
ELEMENT_SET_NO = 999
REV_AT_EPOCH   = 86014
BSTAR          = .31772E-3
MEAN_MOTION_DOT = .4492E-4
MEAN_MOTION_DDOT = 0

CCSDS_OMM_VERS = 2.0
CREATION_DATE  = 
ORIGINATOR     = 

OBJECT_NAME    = COSMOS 2151
OBJECT_ID      = 1991-042A
CENTER_NAME    = EARTH
REF_FRAME      = TEME
TIME_SYSTEM    = UTC
MEAN_ELEMENT_THEORY = SGP/SGP4

EPOCH          = 2026-02-05T04:43:56.371872
MEAN_MOTION    = 14.99977079
ECCENTRICITY   = .0013042
INCLINATION    = 82.4968
RA_OF_ASC_NODE = 115.0183
ARG_OF_PERICENTER = 162.9290
MEAN_ANOMALY   = 197.2376

EPHEMERIS_TYPE = 0
CLASSIFICATION_TYPE = U
NORAD_CAT_ID   = 21422
ELEMENT_SET_NO = 999
REV_AT_EPOCH   = 85832
BSTAR          = .18874E-3
MEAN_MOTION_DOT = .2375E-4
MEAN_MOTION_DDOT = 0

